{"type": "FeatureCollection", "features": [ {"type": "Feature", "properties": {"norad_id": 38493, "name": "FENGYUN 1C DEB", "group": "fengyun-1c-debris", "lat": -13.298293673322705, "lon": -43.32073723927076, "alt_km": 1202.0375133888938, "timestamp": "2025-12-21T16:47:55.028317+00:00", "meta": {"OBJECT_NAME": "FENGYUN 1C DEB", "OBJECT_ID": "1999-025ESC", "EPOCH": "2025-12-13T14:58:26.647392", "MEAN_MOTION": 13.62319496, "ECCENTRICITY": 0.04264901, "INCLINATION": 99.0796, "RA_OF_ASC_NODE": 306.9671, "ARG_OF_PERICENTER": 242.9047, "MEAN_ANOMALY": 112.7989, "EPHEMERIS_TYPE": 0, "CLASSIFICATION_TYPE": "U", "NORAD_CAT_ID": 38493, "ELEMENT_SET_NO": 999, "REV_AT_EPOCH": 56510, "BSTAR": 0.00047974908, "MEAN_MOTION_DOT": 6.42e-06, "MEAN_MOTION_DDOT": 0}, "tle": {"line1": "1 38493U 99025ESC 25347.62391953  .00000642  00000+0  47975-3 0  9997", "line2": "2 38493  99.0796 306.9671 0426490 242.9047 112.7989 13.62319496565102"}}, "geometry": {"type": "Point", "coordinates": [-43.32073723927076, -13.298293673322705]}}, {"type": "Feature", "properties": {"norad_id": 38494, "name": "FENGYUN 1C DEB", "group": "fengyun-1c-debris", "lat": 33.40951423092365, "lon": 130.8568008450735, "alt_km": 1154.6976826060409, "timestamp": "2025-12-21T16:47:55.028327+00:00", "meta": {"OBJECT_NAME": "FENGYUN 1C DEB", "OBJECT_ID": "1999-025ESD", "EPOCH": "2025-12-20T14:23:03.917760", "MEAN_MOTION": 14.00407074, "ECCENTRICITY": 0.0383955, "INCLINATION": 98.436, "RA_OF_ASC_NODE": 304.2204, "ARG_OF_PERICENTER": 347.1321, "MEAN_ANOMALY": 12.0256, "EPHEMERIS_TYPE": 0, "CLASSIFICATION_TYPE": "U", "NORAD_CAT_ID": 38494, "ELEMENT_SET_NO": 999, "REV_AT_EPOCH": 7264, "BSTAR": 0.0035192, "MEAN_MOTION_DOT": 9.884e-05, "MEAN_MOTION_DDOT": 0}, "tle": {"line1": "1 38494U 99025ESD 25354.59935090  .00009884  00000+0  35192-2 0  9992", "line2": "2 38494  98.4360 304.2204 0383955 347.1321  12.0256 14.00407074 72641"}}, "geometry": {"type": "Point", "coordinates": [130.8568008450735, 33.40951423092365]}}, {"type": "Feature", "properties": {"norad_id": 38495, "name": "FENGYUN 1C DEB", "group": "fengyun-1c-debris", "lat": -14.567485473371448, "lon": 14.022644688394452, "alt_km": 1123.4197504506574, "timestamp": "2025-12-21T16:47:55.028338+00:00", "meta": {"OBJECT_NAME": "FENGYUN 1C DEB", "OBJECT_ID": "1999-025ESE", "EPOCH": "2025-12-02T06:20:41.771904", "MEAN_MOTION": 13.69106573, "ECCENTRICITY": 0.0252581, "INCLINATION": 99.1709, "RA_OF_ASC_NODE": 353.1036, "ARG_OF_PERICENTER": 165.9119, "MEAN_ANOMALY": 194.9245, "EPHEMERIS_TYPE": 0, "CLASSIFICATION_TYPE": "U", "NORAD_CAT_ID": 38495, "ELEMENT_SET_NO": 999, "REV_AT_EPOCH": 60969, "BSTAR": 0.0025866, "MEAN_MOTION_DOT": 2.759e-05, "MEAN_MOTION_DDOT": 0}, "tle": {"line1": "1 38495U 99025ESE 25336.26437236  .00002759  00000+0  25866-2 0  9997", "line2": "2 38495  99.1709 353.1036 0252581 165.9119 194.9245 13.69106573609697"}}, "geometry": {"type": "Point", "coordinates": [14.022644688394452, -14.567485473371448]}}, {"type": "Feature", "properties": {"norad_id": 38496, "name": "FENGYUN 1C DEB", "group": "fengyun-1c-debris", "lat": -14.027253345082007, "lon": 7.411393192026998, "alt_km": 807.8237464272033, "timestamp": "2025-12-21T16:47:55.028348+00:00", "meta": {"OBJECT_NAME": "FENGYUN 1C DEB", "OBJECT_ID": "1999-025ESF", "EPOCH": "2025-12-19T06:57:41.678208", "MEAN_MOTION": 14.10020272, "ECCENTRICITY": 0.0077623, "INCLINATION": 98.7629, "RA_OF_ASC_NODE": 2.8558, "ARG_OF_PERICENTER": 347.946, "MEAN_ANOMALY": 11.9851, "EPHEMERIS_TYPE": 0, "CLASSIFICATION_TYPE": "U", "NORAD_CAT_ID": 38496, "ELEMENT_SET_NO": 999, "REV_AT_EPOCH": 81113, "BSTAR": 0.00061884, "MEAN_MOTION_DOT": 1.08e-05, "MEAN_MOTION_DDOT": 0}, "tle": {"line1": "1 38496U 99025ESF 25353.29006572  .00001080  00000+0  61884-3 0  9992", "line2": "2 38496  98.7629   2.8558 0077623 347.9460  11.9851 14.10020272811137"}}, "geometry": {"type": "Point", "coordinates": [7.411393192026998, -14.027253345082007]}}, {"type": "Feature", "properties": {"norad_id": 38498, "name": "FENGYUN 1C DEB", "group": "fengyun-1c-debris", "lat": 61.04476009312017, "lon": -147.0095098857838, "alt_km": 1074.1190864434884, "timestamp": "2025-12-21T16:47:55.028358+00:00", "meta": {"OBJECT_NAME": "FENGYUN 1C DEB", "OBJECT_ID": "1999-025ESH", "EPOCH": "2025-12-16T19:35:11.968800", "MEAN_MOTION": 12.96623618, "ECCENTRICITY": 0.05558926, "INCLINATION": 99.6982, "RA_OF_ASC_NODE": 10.6357, "ARG_OF_PERICENTER": 62.8897, "MEAN_ANOMALY": 302.779, "EPHEMERIS_TYPE": 0, "CLASSIFICATION_TYPE": "U", "NORAD_CAT_ID": 38498, "ELEMENT_SET_NO": 999, "REV_AT_EPOCH": 53796, "BSTAR": 0.0025835338, "MEAN_MOTION_DOT": 1.475e-05, "MEAN_MOTION_DDOT": 0}, "tle": {"line1": "1 38498U 99025ESH 25350.81611075  .00001475  00000+0  25835-2 0  9992", "line2": "2 38498  99.6982  10.6357 0555892  62.8897 302.7790 12.96623618537965"}}, "geometry": {"type": "Point", "coordinates": [-147.0095098857838, 61.04476009312017]}}, {"type": "Feature", "properties": {"norad_id": 38510, "name": "FENGYUN 1C DEB", "group": "fengyun-1c-debris", "lat": 56.45567041492896, "lon": -8.762560681553877, "alt_km": 813.5802017389615, "timestamp": "2025-12-21T16:47:55.028368+00:00", "meta": {"OBJECT_NAME": "FENGYUN 1C DEB", "OBJECT_ID": "1999-025ESV", "EPOCH": "2025-12-16T07:23:50.761824", "MEAN_MOTION": 14.13330157, "ECCENTRICITY": 0.00990126, "INCLINATION": 98.6018, "RA_OF_ASC_NODE": 359.2503, "ARG_OF_PERICENTER": 139.579, "MEAN_ANOMALY": 221.2794, "EPHEMERIS_TYPE": 0, "CLASSIFICATION_TYPE": "U", "NORAD_CAT_ID": 38510, "ELEMENT_SET_NO": 999, "REV_AT_EPOCH": 88720, "BSTAR": 0.00055421528, "MEAN_MOTION_DOT": 1.048e-05, "MEAN_MOTION_DDOT": 0}, "tle": {"line1": "1 38510U 99025ESV 25350.30822641  .00001048  00000+0  55422-3 0  9996", "line2": "2 38510  98.6018 359.2503 0099012 139.5790 221.2794 14.13330157887203"}}, "geometry": {"type": "Point", "coordinates": [-8.762560681553877, 56.45567041492896]}}, {"type": "Feature", "properties": {"norad_id": 38512, "name": "FENGYUN 1C DEB", "group": "fengyun-1c-debris", "lat": -81.3702767814732, "lon": -47.33612577247696, "alt_km": 1156.0923326962866, "timestamp": "2025-12-21T16:47:55.028378+00:00", "meta": {"OBJECT_NAME": "FENGYUN 1C DEB", "OBJECT_ID": "1999-025ESX", "EPOCH": "2025-12-10T03:21:08.986176", "MEAN_MOTION": 13.7397021, "ECCENTRICITY": 0.02264501, "INCLINATION": 98.3804, "RA_OF_ASC_NODE": 226.2794, "ARG_OF_PERICENTER": 112.1956, "MEAN_ANOMALY": 250.339, "EPHEMERIS_TYPE": 0, "CLASSIFICATION_TYPE": "U", "NORAD_CAT_ID": 38512, "ELEMENT_SET_NO": 999, "REV_AT_EPOCH": 59534, "BSTAR": 0.0014232555, "MEAN_MOTION_DOT": 1.573e-05, "MEAN_MOTION_DDOT": 0}, "tle": {"line1": "1 38512U 99025ESX 25344.13968734  .00001573  00000+0  14233-2 0  9993", "line2": "2 38512  98.3804 226.2794 0226450 112.1956 250.3390 13.73970210595340"}}, "geometry": {"type": "Point", "coordinates": [-47.33612577247696, -81.3702767814732]}}, {"type": "Feature", "properties": {"norad_id": 38514, "name": "FENGYUN 1C DEB", "group": "fengyun-1c-debris", "lat": -79.37122100077855, "lon": 155.4460736177474, "alt_km": 822.5974634634376, "timestamp": "2025-12-21T16:47:55.028388+00:00", "meta": {"OBJECT_NAME": "FENGYUN 1C DEB", "OBJECT_ID": "1999-025ESZ", "EPOCH": "2025-12-20T07:19:21.000288", "MEAN_MOTION": 14.16016935, "ECCENTRICITY": 0.02699061, "INCLINATION": 98.0552, "RA_OF_ASC_NODE": 23.1735, "ARG_OF_PERICENTER": 351.7155, "MEAN_ANOMALY": 7.9609, "EPHEMERIS_TYPE": 0, "CLASSIFICATION_TYPE": "U", "NORAD_CAT_ID": 38514, "ELEMENT_SET_NO": 999, "REV_AT_EPOCH": 88103, "BSTAR": 0.0044467844, "MEAN_MOTION_DOT": 0.00012488, "MEAN_MOTION_DDOT": 0}, "tle": {"line1": "1 38514U 99025ESZ 25354.30510417  .00012488  00000+0  44468-2 0  9996", "line2": "2 38514  98.0552  23.1735 0269906 351.7155   7.9609 14.16016935881039"}}, "geometry": {"type": "Point", "coordinates": [155.4460736177474, -79.37122100077855]}}, {"type": "Feature", "properties": {"norad_id": 38516, "name": "FENGYUN 1C DEB", "group": "fengyun-1c-debris", "lat": 74.09520589316597, "lon": -169.18356009931946, "alt_km": 691.6132435487498, "timestamp": "2025-12-21T16:47:55.028398+00:00", "meta": {"OBJECT_NAME": "FENGYUN 1C DEB", "OBJECT_ID": "1999-025ETB", "EPOCH": "2025-12-11T05:08:28.629600", "MEAN_MOTION": 14.34046614, "ECCENTRICITY": 0.01114605, "INCLINATION": 98.4424, "RA_OF_ASC_NODE": 329.1639, "ARG_OF_PERICENTER": 129.7908, "MEAN_ANOMALY": 231.3156, "EPHEMERIS_TYPE": 0, "CLASSIFICATION_TYPE": "U", "NORAD_CAT_ID": 38516, "ELEMENT_SET_NO": 999, "REV_AT_EPOCH": 84851, "BSTAR": 0.00015782354, "MEAN_MOTION_DOT": 4.29e-06, "MEAN_MOTION_DDOT": 0}, "tle": {"line1": "1 38516U 99025ETB 25345.21422025  .00000429  00000+0  15782-3 0  9995", "line2": "2 38516  98.4424 329.1639 0111460 129.7908 231.3156 14.34046614848518"}}, "geometry": {"type": "Point", "coordinates": [-169.18356009931946, 74.09520589316597]}}, {"type": "Feature", "properties": {"norad_id": 38717, "name": "FENGYUN 1C DEB", "group": "fengyun-1c-debris", "lat": -47.150723004308965, "lon": -178.7923917683936, "alt_km": 839.3876000954533, "timestamp": "2025-12-21T16:47:55.028408+00:00", "meta": {"OBJECT_NAME": "FENGYUN 1C DEB", "OBJECT_ID": "1999-025ETJ", "EPOCH": "2025-12-20T20:16:03.375264", "MEAN_MOTION": 14.19985703, "ECCENTRICITY": 0.00566207, "INCLINATION": 99.1583, "RA_OF_ASC_NODE": 10.338, "ARG_OF_PERICENTER": 330.8628, "MEAN_ANOMALY": 207.0088, "EPHEMERIS_TYPE": 0, "CLASSIFICATION_TYPE": "U", "NORAD_CAT_ID": 38717, "ELEMENT_SET_NO": 999, "REV_AT_EPOCH": 58541, "BSTAR": 0.001109032, "MEAN_MOTION_DOT": 2.349e-05, "MEAN_MOTION_DDOT": 0}, "tle": {"line1": "1 38717U 99025ETJ 25354.84448351  .00002349  00000+0  11090-2 0  9997", "line2": "2 38717  99.1583  10.3380 0056620 330.8628 207.0088 14.19985703585412"}}, "geometry": {"type": "Point", "coordinates": [-178.7923917683936, -47.150723004308965]}}]}